[{"OBJECT_NAME":"CUTE-1 (CO-55)","OBJECT_ID":"2003-031E","EPOCH":"2026-04-26T23:11:29.559840","MEAN_MOTION":14.2430274,"ECCENTRICITY":0.00090672,"INCLINATION":98.6757,"RA_OF_ASC_NODE":126.1672,"ARG_OF_PERICENTER":341.6381,"MEAN_ANOMALY":18.447,"EPHEMERIS_TYPE":0,"CLASSIFICATION_TYPE":"U","NORAD_CAT_ID":27844,"ELEMENT_SET_NO":999,"REV_AT_EPOCH":18438,"BSTAR":0.00015133932,"MEAN_MOTION_DOT":3.06e-6,"MEAN_MOTION_DDOT":0},{"OBJECT_NAME":"CUBESAT XI-IV (CO-57)","OBJECT_ID":"2003-031J","EPOCH":"2026-04-26T23:59:12.403968","MEAN_MOTION":14.23592362,"ECCENTRICITY":0.000938,"INCLINATION":98.6788,"RA_OF_ASC_NODE":125.9538,"ARG_OF_PERICENTER":0.4265,"MEAN_ANOMALY":359.692,"EPHEMERIS_TYPE":0,"CLASSIFICATION_TYPE":"U","NORAD_CAT_ID":27848,"ELEMENT_SET_NO":999,"REV_AT_EPOCH":18409,"BSTAR":0.00012917905,"MEAN_MOTION_DOT":2.51e-6,"MEAN_MOTION_DDOT":0},{"OBJECT_NAME":"CUBESAT XI-V","OBJECT_ID":"2005-043F","EPOCH":"2026-04-27T04:02:51.185472","MEAN_MOTION":14.72493837,"ECCENTRICITY":0.00141944,"INCLINATION":98.2925,"RA_OF_ASC_NODE":271.7406,"ARG_OF_PERICENTER":12.8528,"MEAN_ANOMALY":347.3037,"EPHEMERIS_TYPE":0,"CLASSIFICATION_TYPE":"U","NORAD_CAT_ID":28895,"ELEMENT_SET_NO":999,"REV_AT_EPOCH":9424,"BSTAR":0.00025857913,"MEAN_MOTION_DOT":1.591e-5,"MEAN_MOTION_DDOT":0},{"OBJECT_NAME":"CUTE-1.7+APD II (CO-65)","OBJECT_ID":"2008-021C","EPOCH":"2026-04-27T04:42:43.024320","MEAN_MOTION":15.08959991,"ECCENTRICITY":0.00084305,"INCLINATION":97.8254,"RA_OF_ASC_NODE":97.5835,"ARG_OF_PERICENTER":189.8816,"MEAN_ANOMALY":170.2248,"EPHEMERIS_TYPE":0,"CLASSIFICATION_TYPE":"U","NORAD_CAT_ID":32785,"ELEMENT_SET_NO":999,"REV_AT_EPOCH":97750,"BSTAR":0.00039116027,"MEAN_MOTION_DOT":6.116e-5,"MEAN_MOTION_DDOT":0},{"OBJECT_NAME":"CANX-2","OBJECT_ID":"2008-021H","EPOCH":"2026-04-27T04:11:09.633984","MEAN_MOTION":15.05240562,"ECCENTRICITY":0.00094935,"INCLINATION":97.8602,"RA_OF_ASC_NODE":95.9863,"ARG_OF_PERICENTER":208.8165,"MEAN_ANOMALY":151.2537,"EPHEMERIS_TYPE":0,"CLASSIFICATION_TYPE":"U","NORAD_CAT_ID":32790,"ELEMENT_SET_NO":999,"REV_AT_EPOCH":97713,"BSTAR":0.00030171725,"MEAN_MOTION_DOT":4.248e-5,"MEAN_MOTION_DDOT":0},{"OBJECT_NAME":"SEEDS II (CO-66)","OBJECT_ID":"2008-021J","EPOCH":"2026-04-26T22:08:21.796800","MEAN_MOTION":15.30966474,"ECCENTRICITY":0.000499,"INCLINATION":97.7528,"RA_OF_ASC_NODE":112.4472,"ARG_OF_PERICENTER":113.7428,"MEAN_ANOMALY":246.4336,"EPHEMERIS_TYPE":0,"CLASSIFICATION_TYPE":"U","NORAD_CAT_ID":32791,"ELEMENT_SET_NO":999,"REV_AT_EPOCH":97944,"BSTAR":0.00068577,"MEAN_MOTION_DOT":0.00020476,"MEAN_MOTION_DDOT":0},{"OBJECT_NAME":"SWISSCUBE","OBJECT_ID":"2009-051B","EPOCH":"2026-04-27T04:42:07.137216","MEAN_MOTION":14.62379488,"ECCENTRICITY":0.00073261,"INCLINATION":98.4066,"RA_OF_ASC_NODE":24.1928,"ARG_OF_PERICENTER":22.0069,"MEAN_ANOMALY":338.1445,"EPHEMERIS_TYPE":0,"CLASSIFICATION_TYPE":"U","NORAD_CAT_ID":35932,"ELEMENT_SET_NO":999,"REV_AT_EPOCH":88170,"BSTAR":0.00024233332,"MEAN_MOTION_DOT":1.176e-5,"MEAN_MOTION_DDOT":0},{"OBJECT_NAME":"BEESAT-1","OBJECT_ID":"2009-051C","EPOCH":"2026-04-27T04:17:53.670624","MEAN_MOTION":14.61634123,"ECCENTRICITY":0.00060825,"INCLINATION":98.3995,"RA_OF_ASC_NODE":23.917,"ARG_OF_PERICENTER":37.0344,"MEAN_ANOMALY":323.1275,"EPHEMERIS_TYPE":0,"CLASSIFICATION_TYPE":"U","NORAD_CAT_ID":35933,"ELEMENT_SET_NO":999,"REV_AT_EPOCH":88173,"BSTAR":0.0002062656,"MEAN_MOTION_DOT":9.77e-6,"MEAN_MOTION_DDOT":0},{"OBJECT_NAME":"ITUPSAT1","OBJECT_ID":"2009-051E","EPOCH":"2026-04-27T06:17:58.888032","MEAN_MOTION":14.60361119,"ECCENTRICITY":0.00084284,"INCLINATION":98.4081,"RA_OF_ASC_NODE":23.247,"ARG_OF_PERICENTER":43.7341,"MEAN_ANOMALY":316.4525,"EPHEMERIS_TYPE":0,"CLASSIFICATION_TYPE":"U","NORAD_CAT_ID":35935,"ELEMENT_SET_NO":999,"REV_AT_EPOCH":88130,"BSTAR":0.00019689594,"MEAN_MOTION_DOT":9.04e-6,"MEAN_MOTION_DDOT":0},{"OBJECT_NAME":"TISAT 1","OBJECT_ID":"2010-035E","EPOCH":"2026-04-27T06:12:12.782592","MEAN_MOTION":15.29745076,"ECCENTRICITY":0.000457,"INCLINATION":98.0679,"RA_OF_ASC_NODE":59.3813,"ARG_OF_PERICENTER":79.0427,"MEAN_ANOMALY":281.1325,"EPHEMERIS_TYPE":0,"CLASSIFICATION_TYPE":"U","NORAD_CAT_ID":36799,"ELEMENT_SET_NO":999,"REV_AT_EPOCH":85991,"BSTAR":0.0009118536,"MEAN_MOTION_DOT":0.00026261,"MEAN_MOTION_DDOT":0},{"OBJECT_NAME":"AEROCUBE 4.5A","OBJECT_ID":"2012-048K","EPOCH":"2026-04-26T15:27:52.508736","MEAN_MOTION":15.73067408,"ECCENTRICITY":0.00250849,"INCLINATION":64.6325,"RA_OF_ASC_NODE":211.7963,"ARG_OF_PERICENTER":214.3094,"MEAN_ANOMALY":145.6438,"EPHEMERIS_TYPE":0,"CLASSIFICATION_TYPE":"U","NORAD_CAT_ID":38767,"ELEMENT_SET_NO":999,"REV_AT_EPOCH":36450,"BSTAR":0.0012004461,"MEAN_MOTION_DOT":0.00171592,"MEAN_MOTION_DDOT":0},{"OBJECT_NAME":"STRAND-1","OBJECT_ID":"2013-009E","EPOCH":"2026-04-26T11:10:40.191744","MEAN_MOTION":14.37131572,"ECCENTRICITY":0.00092207,"INCLINATION":98.3914,"RA_OF_ASC_NODE":297.9758,"ARG_OF_PERICENTER":32.965,"MEAN_ANOMALY":327.211,"EPHEMERIS_TYPE":0,"CLASSIFICATION_TYPE":"U","NORAD_CAT_ID":39090,"ELEMENT_SET_NO":999,"REV_AT_EPOCH":68963,"BSTAR":0.00011755274,"MEAN_MOTION_DOT":3.07e-6,"MEAN_MOTION_DDOT":0},{"OBJECT_NAME":"BRITE-AUSTRIA","OBJECT_ID":"2013-009F","EPOCH":"2026-04-27T07:00:55.260864","MEAN_MOTION":14.36521023,"ECCENTRICITY":0.00108749,"INCLINATION":98.3985,"RA_OF_ASC_NODE":297.9904,"ARG_OF_PERICENTER":37.969,"MEAN_ANOMALY":322.2261,"EPHEMERIS_TYPE":0,"CLASSIFICATION_TYPE":"U","NORAD_CAT_ID":39091,"ELEMENT_SET_NO":999,"REV_AT_EPOCH":68974,"BSTAR":8.2510779e-5,"MEAN_MOTION_DOT":2.0e-6,"MEAN_MOTION_DDOT":0},{"OBJECT_NAME":"NEE-01 PEGASO","OBJECT_ID":"2013-018B","EPOCH":"2026-04-26T22:42:31.800960","MEAN_MOTION":14.93403587,"ECCENTRICITY":0.0011876,"INCLINATION":98.1146,"RA_OF_ASC_NODE":259.4342,"ARG_OF_PERICENTER":338.9376,"MEAN_ANOMALY":21.1351,"EPHEMERIS_TYPE":0,"CLASSIFICATION_TYPE":"U","NORAD_CAT_ID":39151,"ELEMENT_SET_NO":999,"REV_AT_EPOCH":70305,"BSTAR":0.00033589,"MEAN_MOTION_DOT":3.47e-5,"MEAN_MOTION_DDOT":0},{"OBJECT_NAME":"POPACS 2","OBJECT_ID":"2013-055E","EPOCH":"2026-04-27T05:27:34.660800","MEAN_MOTION":14.89957814,"ECCENTRICITY":0.04218976,"INCLINATION":80.9937,"RA_OF_ASC_NODE":202.4715,"ARG_OF_PERICENTER":357.6452,"MEAN_ANOMALY":2.276,"EPHEMERIS_TYPE":0,"CLASSIFICATION_TYPE":"U","NORAD_CAT_ID":39269,"ELEMENT_SET_NO":999,"REV_AT_EPOCH":65562,"BSTAR":0.00033649034,"MEAN_MOTION_DOT":0.00019671,"MEAN_MOTION_DDOT":0},{"OBJECT_NAME":"POPACS 3","OBJECT_ID":"2013-055F","EPOCH":"2026-04-27T04:15:49.757472","MEAN_MOTION":14.54860165,"ECCENTRICITY":0.05555235,"INCLINATION":80.9998,"RA_OF_ASC_NODE":284.4489,"ARG_OF_PERICENTER":225.1484,"MEAN_ANOMALY":130.3308,"EPHEMERIS_TYPE":0,"CLASSIFICATION_TYPE":"U","NORAD_CAT_ID":39270,"ELEMENT_SET_NO":999,"REV_AT_EPOCH":63113,"BSTAR":0.00027785632,"MEAN_MOTION_DOT":0.00011474,"MEAN_MOTION_DDOT":0}]
